[{"OBJECT_NAME":"STARLINK-32555","OBJECT_ID":"2024-207G","EPOCH":"2026-03-09T00:18:03.191616","MEAN_MOTION":15.27595258,"ECCENTRICITY":0.00019544,"INCLINATION":43.0013,"RA_OF_ASC_NODE":289.4467,"ARG_OF_PERICENTER":265.2746,"MEAN_ANOMALY":94.7882,"EPHEMERIS_TYPE":0,"CLASSIFICATION_TYPE":"U","NORAD_CAT_ID":61918,"ELEMENT_SET_NO":999,"REV_AT_EPOCH":7457,"BSTAR":0.0008758077,"MEAN_MOTION_DOT":0.00023928,"MEAN_MOTION_DDOT":0},{"OBJECT_NAME":"ALSAT-3B","OBJECT_ID":"2026-021A","EPOCH":"2026-03-09T21:47:36.363264","MEAN_MOTION":15.23965648,"ECCENTRICITY":0.00137736,"INCLINATION":97.4662,"RA_OF_ASC_NODE":143.2461,"ARG_OF_PERICENTER":131.2824,"MEAN_ANOMALY":228.9602,"EPHEMERIS_TYPE":0,"CLASSIFICATION_TYPE":"U","NORAD_CAT_ID":67646,"ELEMENT_SET_NO":999,"REV_AT_EPOCH":575,"BSTAR":0.00034138739,"MEAN_MOTION_DOT":8.212e-5,"MEAN_MOTION_DDOT":0}]
